{"type": "FeatureCollection", "features": [ {"type": "Feature", "properties": {"norad_id": 40802, "name": "COSMOS 2251 DEB", "group": "cosmos-2251-debris", "lat": -58.024883641836354, "lon": 97.04862713344636, "alt_km": 633.7757220575586, "timestamp": "2025-12-27T08:36:18.783062+00:00", "meta": {"OBJECT_NAME": "COSMOS 2251 DEB", "OBJECT_ID": "1993-036BWF", "EPOCH": "2025-12-23T15:31:23.351520", "MEAN_MOTION": 14.77722867, "ECCENTRICITY": 0.00628376, "INCLINATION": 74.0411, "RA_OF_ASC_NODE": 131.6125, "ARG_OF_PERICENTER": 228.2814, "MEAN_ANOMALY": 131.2977, "EPHEMERIS_TYPE": 0, "CLASSIFICATION_TYPE": "U", "NORAD_CAT_ID": 40802, "ELEMENT_SET_NO": 999, "REV_AT_EPOCH": 64570, "BSTAR": 0.00086100359, "MEAN_MOTION_DOT": 6.349e-05, "MEAN_MOTION_DDOT": 0}, "tle": {"line1": "1 40802U 93036BWF 25357.64679805  .00006349  00000+0  86100-3 0  9991", "line2": "2 40802  74.0411 131.6125 0062837 228.2814 131.2977 14.77722867645708"}}, "geometry": {"type": "Point", "coordinates": [97.04862713344636, -58.024883641836354]}}, {"type": "Feature", "properties": {"norad_id": 40803, "name": "COSMOS 2251 DEB", "group": "cosmos-2251-debris", "lat": -38.39235623359032, "lon": -142.53894878128744, "alt_km": 702.5548034908506, "timestamp": "2025-12-27T08:36:18.783072+00:00", "meta": {"OBJECT_NAME": "COSMOS 2251 DEB", "OBJECT_ID": "1993-036BWG", "EPOCH": "2025-12-24T20:03:27.634464", "MEAN_MOTION": 14.51846049, "ECCENTRICITY": 0.00342953, "INCLINATION": 74.0134, "RA_OF_ASC_NODE": 29.0874, "ARG_OF_PERICENTER": 243.7253, "MEAN_ANOMALY": 116.0383, "EPHEMERIS_TYPE": 0, "CLASSIFICATION_TYPE": "U", "NORAD_CAT_ID": 40803, "ELEMENT_SET_NO": 999, "REV_AT_EPOCH": 58928, "BSTAR": 0.00027268389, "MEAN_MOTION_DOT": 1.077e-05, "MEAN_MOTION_DDOT": 0}, "tle": {"line1": "1 40803U 93036BWG 25358.83573651  .00001077  00000+0  27268-3 0  9999", "line2": "2 40803  74.0134  29.0874 0034295 243.7253 116.0383 14.51846049589281"}}, "geometry": {"type": "Point", "coordinates": [-142.53894878128744, -38.39235623359032]}}, {"type": "Feature", "properties": {"norad_id": 40808, "name": "COSMOS 2251 DEB", "group": "cosmos-2251-debris", "lat": -60.18658189974877, "lon": -32.795083198529206, "alt_km": 675.4027053606278, "timestamp": "2025-12-27T08:36:18.783082+00:00", "meta": {"OBJECT_NAME": "COSMOS 2251 DEB", "OBJECT_ID": "1993-036BWM", "EPOCH": "2025-12-27T01:45:15.935040", "MEAN_MOTION": 14.67741077, "ECCENTRICITY": 0.0007818, "INCLINATION": 74.0418, "RA_OF_ASC_NODE": 117.7977, "ARG_OF_PERICENTER": 151.4581, "MEAN_ANOMALY": 25.2255, "EPHEMERIS_TYPE": 0, "CLASSIFICATION_TYPE": "U", "NORAD_CAT_ID": 40808, "ELEMENT_SET_NO": 999, "REV_AT_EPOCH": 63829, "BSTAR": 0.002118, "MEAN_MOTION_DOT": 0.00012066, "MEAN_MOTION_DDOT": 0}, "tle": {"line1": "1 40808U 93036BWM 25361.07310110  .00012066  00000+0  21180-2 0  9999", "line2": "2 40808  74.0418 117.7977 0007818 151.4581  25.2255 14.67741077638297"}}, "geometry": {"type": "Point", "coordinates": [-32.795083198529206, -60.18658189974877]}}, {"type": "Feature", "properties": {"norad_id": 40810, "name": "COSMOS 2251 DEB", "group": "cosmos-2251-debris", "lat": 53.49131891290344, "lon": 69.64989613495375, "alt_km": 701.4135291319708, "timestamp": "2025-12-27T08:36:18.783091+00:00", "meta": {"OBJECT_NAME": "COSMOS 2251 DEB", "OBJECT_ID": "1993-036BWP", "EPOCH": "2025-12-23T03:56:49.945344", "MEAN_MOTION": 14.58782513, "ECCENTRICITY": 0.00180471, "INCLINATION": 74.0361, "RA_OF_ASC_NODE": 54.8832, "ARG_OF_PERICENTER": 205.863, "MEAN_ANOMALY": 154.1635, "EPHEMERIS_TYPE": 0, "CLASSIFICATION_TYPE": "U", "NORAD_CAT_ID": 40810, "ELEMENT_SET_NO": 999, "REV_AT_EPOCH": 61835, "BSTAR": 0.0007215593, "MEAN_MOTION_DOT": 3.351e-05, "MEAN_MOTION_DDOT": 0}, "tle": {"line1": "1 40810U 93036BWP 25357.16446696  .00003351  00000+0  72156-3 0  9993", "line2": "2 40810  74.0361  54.8832 0018047 205.8630 154.1635 14.58782513618352"}}, "geometry": {"type": "Point", "coordinates": [69.64989613495375, 53.49131891290344]}}, {"type": "Feature", "properties": {"norad_id": 46271, "name": "COSMOS 2251 DEB", "group": "cosmos-2251-debris", "lat": -73.92627721197125, "lon": -32.391290910952414, "alt_km": 733.9760367405297, "timestamp": "2025-12-27T08:36:18.783101+00:00", "meta": {"OBJECT_NAME": "COSMOS 2251 DEB", "OBJECT_ID": "1993-036BWT", "EPOCH": "2025-12-26T09:51:15.606720", "MEAN_MOTION": 14.51459562, "ECCENTRICITY": 0.0039505, "INCLINATION": 74.0464, "RA_OF_ASC_NODE": 52.4997, "ARG_OF_PERICENTER": 171.0739, "MEAN_ANOMALY": 189.1134, "EPHEMERIS_TYPE": 0, "CLASSIFICATION_TYPE": "U", "NORAD_CAT_ID": 46271, "ELEMENT_SET_NO": 999, "REV_AT_EPOCH": 84840, "BSTAR": 0.00027567, "MEAN_MOTION_DOT": 1.084e-05, "MEAN_MOTION_DDOT": 0}, "tle": {"line1": "1 46271U 93036BWT 25360.41059730  .00001084  00000+0  27567-3 0  9998", "line2": "2 46271  74.0464  52.4997 0039505 171.0739 189.1134 14.51459562848406"}}, "geometry": {"type": "Point", "coordinates": [-32.391290910952414, -73.92627721197125]}}, {"type": "Feature", "properties": {"norad_id": 46430, "name": "COSMOS 2251 DEB", "group": "cosmos-2251-debris", "lat": -23.384111469300237, "lon": -38.54363726817505, "alt_km": 724.4211911190796, "timestamp": "2025-12-27T08:36:18.783111+00:00", "meta": {"OBJECT_NAME": "COSMOS 2251 DEB", "OBJECT_ID": "1993-036BWU", "EPOCH": "2025-12-22T16:14:06.887040", "MEAN_MOTION": 14.51442901, "ECCENTRICITY": 0.01029275, "INCLINATION": 73.9145, "RA_OF_ASC_NODE": 337.5005, "ARG_OF_PERICENTER": 256.0795, "MEAN_ANOMALY": 102.8901, "EPHEMERIS_TYPE": 0, "CLASSIFICATION_TYPE": "U", "NORAD_CAT_ID": 46430, "ELEMENT_SET_NO": 999, "REV_AT_EPOCH": 79827, "BSTAR": 0.0019695835, "MEAN_MOTION_DOT": 8.403e-05, "MEAN_MOTION_DDOT": 0}, "tle": {"line1": "1 46430U 93036BWU 25356.67646860  .00008403  00000+0  19696-2 0  9999", "line2": "2 46430  73.9145 337.5005 0102927 256.0795 102.8901 14.51442901798271"}}, "geometry": {"type": "Point", "coordinates": [-38.54363726817505, -23.384111469300237]}}, {"type": "Feature", "properties": {"norad_id": 46432, "name": "COSMOS 2251 DEB", "group": "cosmos-2251-debris", "lat": -6.03987264926844, "lon": -89.98405687656172, "alt_km": 784.2407082220889, "timestamp": "2025-12-27T08:36:18.783121+00:00", "meta": {"OBJECT_NAME": "COSMOS 2251 DEB", "OBJECT_ID": "1993-036BWW", "EPOCH": "2025-12-25T00:54:04.722624", "MEAN_MOTION": 13.36660179, "ECCENTRICITY": 0.04737205, "INCLINATION": 73.8746, "RA_OF_ASC_NODE": 91.9173, "ARG_OF_PERICENTER": 207.4888, "MEAN_ANOMALY": 335.6994, "EPHEMERIS_TYPE": 0, "CLASSIFICATION_TYPE": "U", "NORAD_CAT_ID": 46432, "ELEMENT_SET_NO": 999, "REV_AT_EPOCH": 67130, "BSTAR": 0.00092584102, "MEAN_MOTION_DOT": 8.9e-06, "MEAN_MOTION_DDOT": 0}, "tle": {"line1": "1 46432U 93036BWW 25359.03755466  .00000890  00000+0  92584-3 0  9997", "line2": "2 46432  73.8746  91.9173 0473720 207.4888 335.6994 13.36660179671304"}}, "geometry": {"type": "Point", "coordinates": [-89.98405687656172, -6.03987264926844]}}, {"type": "Feature", "properties": {"norad_id": 47045, "name": "COSMOS 2251 DEB", "group": "cosmos-2251-debris", "lat": -26.464320097233173, "lon": -49.57814939617052, "alt_km": 754.3332368620622, "timestamp": "2025-12-27T08:36:18.783131+00:00", "meta": {"OBJECT_NAME": "COSMOS 2251 DEB", "OBJECT_ID": "1993-036BWZ", "EPOCH": "2025-12-22T15:55:55.342272", "MEAN_MOTION": 14.38905258, "ECCENTRICITY": 0.00303733, "INCLINATION": 74.058, "RA_OF_ASC_NODE": 130.8857, "ARG_OF_PERICENTER": 270.255, "MEAN_ANOMALY": 108.4261, "EPHEMERIS_TYPE": 0, "CLASSIFICATION_TYPE": "U", "NORAD_CAT_ID": 47045, "ELEMENT_SET_NO": 999, "REV_AT_EPOCH": 7948, "BSTAR": 8.0309913e-05, "MEAN_MOTION_DOT": 2.22e-06, "MEAN_MOTION_DDOT": 0}, "tle": {"line1": "1 47045U 93036BWZ 25356.66383498  .00000222  00000+0  80310-4 0  9990", "line2": "2 47045  74.0580 130.8857 0030373 270.2550 108.4261 14.38905258 79480"}}, "geometry": {"type": "Point", "coordinates": [-49.57814939617052, -26.464320097233173]}}, {"type": "Feature", "properties": {"norad_id": 47048, "name": "COSMOS 2251 DEB", "group": "cosmos-2251-debris", "lat": 54.59275784438748, "lon": 87.68014748580978, "alt_km": 618.7985513303311, "timestamp": "2025-12-27T08:36:18.783142+00:00", "meta": {"OBJECT_NAME": "COSMOS 2251 DEB", "OBJECT_ID": "1993-036BXC", "EPOCH": "2025-12-25T13:52:22.612800", "MEAN_MOTION": 14.52412051, "ECCENTRICITY": 0.0132398, "INCLINATION": 73.978, "RA_OF_ASC_NODE": 294.8913, "ARG_OF_PERICENTER": 119.414, "MEAN_ANOMALY": 56.3605, "EPHEMERIS_TYPE": 0, "CLASSIFICATION_TYPE": "U", "NORAD_CAT_ID": 47048, "ELEMENT_SET_NO": 999, "REV_AT_EPOCH": 59876, "BSTAR": 0.0011784, "MEAN_MOTION_DOT": 5.362e-05, "MEAN_MOTION_DDOT": 0}, "tle": {"line1": "1 47048U 93036BXC 25359.57803950  .00005362  00000+0  11784-2 0  9993", "line2": "2 47048  73.9780 294.8913 0132398 119.4140  56.3605 14.52412051598766"}}, "geometry": {"type": "Point", "coordinates": [87.68014748580978, 54.59275784438748]}}, {"type": "Feature", "properties": {"norad_id": 47051, "name": "COSMOS 2251 DEB", "group": "cosmos-2251-debris", "lat": -67.91625274324096, "lon": 115.07509247923716, "alt_km": 774.1139278350765, "timestamp": "2025-12-27T08:36:18.783152+00:00", "meta": {"OBJECT_NAME": "COSMOS 2251 DEB", "OBJECT_ID": "1993-036BXF", "EPOCH": "2025-12-13T06:55:53.868288", "MEAN_MOTION": 13.67117141, "ECCENTRICITY": 0.03401033, "INCLINATION": 74.1001, "RA_OF_ASC_NODE": 182.6908, "ARG_OF_PERICENTER": 296.1774, "MEAN_ANOMALY": 246.9893, "EPHEMERIS_TYPE": 0, "CLASSIFICATION_TYPE": "U", "NORAD_CAT_ID": 47051, "ELEMENT_SET_NO": 999, "REV_AT_EPOCH": 59945, "BSTAR": 0.0019326179, "MEAN_MOTION_DOT": 2.391e-05, "MEAN_MOTION_DDOT": 0}, "tle": {"line1": "1 47051U 93036BXF 25347.28881792  .00002391  00000+0  19326-2 0  9991", "line2": "2 47051  74.1001 182.6908 0340103 296.1774 246.9893 13.67117141599458"}}, "geometry": {"type": "Point", "coordinates": [115.07509247923716, -67.91625274324096]}}]}